MEAN_MOTION;ECCENTRICITY;INCLINATION;RA_OF_ASC_NODE;ARG_OF_PERICENTER;MEAN_ANOMALY;BSTAR;MEAN_MOTION_DOT;MEAN_MOTION_DDOT;TYPE
1.00271665;0.0001552;0.0188;198.4536;142.8675;62.0691;0;-2.82E-6;0;Intelsat
1.0027135;0.0001631;0.0158;179.3948;164.9121;214.595;0;-2.84E-6;0;Intelsat
1.00268821;0.0001654;0.0244;168.7849;178.7088;84.6367;0;-2.86E-6;0;Intelsat
1.00271005;0.0001644;0.0173;175.6723;170.5911;111.7548;0;-2.86E-6;0;Intelsat
1.00268488;0.0001634;0.0255;167.9892;190.8726;306.5105;0;-2.88E-6;0;Intelsat
1.00268298;0.0001646;0.0262;166.9312;194.075;73.9285;0;-2.89E-6;0;Intelsat
1.00270799;0.0001604;0.0347;270.762;87.0649;310.3187;0;-2.91E-6;0;Intelsat
1.00270005;0.0001579;0.0336;269.7386;88.6597;79.3249;0;-2.92E-6;0;Intelsat
1.0026978;0.0001581;0.0315;267.1169;94.9164;308.8998;0;-2.93E-6;0;Intelsat
1.00269451;0.0001592;0.028;262.7847;104.2831;306.6595;0;-2.94E-6;0;Intelsat
1.00269341;0.0001605;0.0265;261.1231;107.8064;74.3815;0;-2.94E-6;0;Intelsat
1.00273431;0.0001596;0.0243;257.6261;105.2395;287.777;0;-2.94E-6;0;Intelsat
1.0027312;0.0001589;0.0226;255.5787;108.1353;82.4023;0;-2.94E-6;0;Intelsat
1.00273006;0.0001593;0.0205;251.9602;114.6643;312.6765;0;-2.93E-6;0;Intelsat
1.00272882;0.0001595;0.0189;249.595;118.4203;80.9089;0;-2.93E-6;0;Intelsat
1.00272724;0.0001592;0.0155;244.1445;127.0272;54.6483;0;-2.92E-6;0;Intelsat
1.00272703;0.0001598;0.0152;243.4236;133.1812;75.1396;0;-2.92E-6;0;Intelsat
1.00272521;0.0001605;0.0119;237.5947;143.5249;47.4958;0;-2.91E-6;0;Intelsat
1.00271889;0.0001694;0.0341;269.6364;117.4472;274.7778;0;-2.9E-6;0;Intelsat
1.00271177;0.0001662;0.0315;268.3732;121.7736;274.518;0;-2.89E-6;0;Intelsat
1.00271075;0.0001656;0.0303;267.7539;123.7836;68.6109;0;-2.89E-6;0;Intelsat
1.00270959;0.0001664;0.0289;266.7573;126.7076;273.9806;0;-2.89E-6;0;Intelsat
1.00270851;0.0001656;0.0277;266.066;128.4053;68.4687;0;-2.88E-6;0;Intelsat
1.00274225;0.0001633;0.0264;264.4503;131.1117;265.0301;0;-2.88E-6;0;Intelsat
1.00274225;0.0001633;0.0264;264.4503;131.1117;265.0301;0;-2.88E-6;0;Intelsat
1.00273097;0.0001595;0.0251;263.5391;131.5025;70.6642;0;-2.87E-6;0;Intelsat
1.00272832;0.0001592;0.0237;262.021;134.245;276.7696;0;-2.87E-6;0;Intelsat
1.00272709;0.0001593;0.0225;260.6751;136.4689;71.3689;0;-2.86E-6;0;Intelsat
1.00272438;0.000159;0.0198;257.68;141.2011;46.5225;0;-2.85E-6;0;Intelsat
1.00272419;0.0001589;0.0196;257.1879;141.8655;72.271;0;-2.85E-6;0;Intelsat
1.00272106;0.0001591;0.0171;253.0098;148.0154;47.1831;0;-2.84E-6;0;Intelsat
1.00271725;0.0001589;0.0142;247.6016;155.1028;74.2251;0;-2.81E-6;0;Intelsat
1.00271615;0.0001584;0.0135;246.6377;156.3903;174.9315;0;-2.81E-6;0;Intelsat
1.00271342;0.0001586;0.0113;242.6331;161.1185;75.9899;0;-2.79E-6;0;Intelsat
1.00271098;0.0001581;0.0159;233.1568;171.0808;282.8071;0;-2.78E-6;0;Intelsat
1.0027096;0.0001587;0.0163;232.1404;172.4969;51.9783;0;-2.77E-6;0;Intelsat
1.0027344;0.0001456;0.0187;230.2533;169.6018;7.7357;0;-2.75E-6;0;Intelsat
1.00273466;0.0001459;0.0203;228.327;170.9657;100.912;0;-2.74E-6;0;Intelsat
1.00273234;0.0001461;0.0206;226.3537;172.0599;268.3198;0;-2.73E-6;0;Intelsat
1.00273018;0.000145;0.021;226.6137;171.6276;38.0787;0;-2.73E-6;0;Intelsat
1.00269906;0.0001411;0.0239;217.2942;175.8113;69.1399;0;-2.72E-6;0;Intelsat
1.0026979;0.0001452;0.0225;216.5733;175.0201;277.9552;0;-2.71E-6;0;Intelsat
1.00272366;0.0001431;0.002;184.3962;208.2986;46.4229;0;-2.71E-6;0;Intelsat
1.00272282;0.0001511;0.0195;226.0048;175.1425;63.8871;0;-2.71E-6;0;Intelsat
1.0026934;0.000157;0.0197;211.8582;189.6802;40.3748;0;-2.71E-6;0;Intelsat
1.00269322;0.0001573;0.0195;212.0155;189.7045;66.1103;0;-2.7E-6;0;Intelsat
1.0026905;0.0001623;0.0177;205.5863;196.7654;42.3909;0;-2.71E-6;0;Intelsat
1.0026903;0.0001625;0.0175;205.618;196.883;68.1281;0;-2.71E-6;0;Intelsat
1.00268836;0.0001685;0.0164;200.7018;202.4308;274.8318;0;-2.72E-6;0;Intelsat
1.00268677;0.0001687;0.0162;196.3859;207.461;69.61;0;-2.72E-6;0;Intelsat
1.00270535;0.0001717;0.0168;178.6424;226.2348;191.1832;0;-2.73E-6;0;Intelsat
1.00270346;0.000172;0.0176;180.6183;223.9455;19.8585;0;-2.74E-6;0;Intelsat
1.00272224;0.0001551;0.0173;183.0212;218.3803;187.6549;0;-2.76E-6;0;Intelsat
1.0027235;0.0001592;0.0169;181.0001;218.5828;53.5445;0;-2.77E-6;0;Intelsat
1.00272258;0.0001657;0.0162;172.5811;229.0209;284.7426;0;-2.8E-6;0;Intelsat
1.00272074;0.000168;0.0154;164.4082;237.6189;79.8192;0;-2.81E-6;0;Intelsat
1.00271841;0.0001727;0.0128;142.9663;260.6526;255.6075;0;-2.83E-6;0;Intelsat
1.00271595;0.0001764;0.0161;134.1286;270.688;79.8503;0;-2.84E-6;0;Intelsat
1.00271354;0.0001824;0.0199;124.124;283.1168;284.7313;0;-2.86E-6;0;Intelsat
1.00271188;0.0001862;0.0219;120.1164;287.896;79.4603;0;-2.87E-6;0;Intelsat
1.00270977;0.0001917;0.0258;111.9419;298.3316;284.5106;0;-2.89E-6;0;Intelsat
1.00270821;0.0001961;0.0293;104.3026;306.9377;79.0104;0;-2.89E-6;0;Intelsat
1.0027051;0.0002049;0.0365;85.7315;328.5269;52.8931;0;-2.9E-6;0;Intelsat
1.00270228;0.0002148;0.0404;76.2777;341.191;52.4678;0;-2.9E-6;0;Intelsat
1.00270135;0.0002178;0.0409;75.8099;342.7404;180.9695;0;-2.89E-6;0;Intelsat
1.00272519;0.0001567;0.042;79.9068;311.1928;268.0041;0;-2.88E-6;0;Intelsat
1.00272467;0.0001589;0.0426;80.7105;311.4131;83.4486;0;-2.88E-6;0;Intelsat
1.00272336;0.0001595;0.0433;82.342;313.6643;286.868;0;-2.87E-6;0;Intelsat
1.00272258;0.0001613;0.0438;82.7704;315.7135;79.8926;0;-2.86E-6;0;Intelsat
1.00272115;0.0001624;0.0442;83.7687;317.7384;284.175;0;-2.86E-6;0;Intelsat
1.00272029;0.0001647;0.0447;84.1689;320.4687;76.5218;0;-2.85E-6;0;Intelsat
1.00271682;0.0001646;0.0441;85.1554;321.0529;282.2759;0;-2.85E-6;0;Intelsat
1.00271594;0.0001661;0.0447;85.3601;323.5202;99.7199;0;-2.84E-6;0;Intelsat
1.00271442;0.0001668;0.0452;85.5929;324.7698;280.9301;0;-2.84E-6;0;Intelsat
1.00271361;0.0001675;0.0456;85.5449;326.7239;74.4962;0;-2.83E-6;0;Intelsat
1.00271198;0.0001687;0.0461;85.7138;328.8499;279.5363;0;-2.83E-6;0;Intelsat
1.00271103;0.0001688;0.0465;85.6057;330.5385;73.4385;0;-2.83E-6;0;Intelsat
1.00270935;0.0001694;0.047;85.7007;332.2018;278.9971;0;-2.82E-6;0;Intelsat
1.00270859;0.0001694;0.0471;85.4255;333.2043;21.9104;0;-2.82E-6;0;Intelsat
1.00270826;0.0001692;0.0473;85.5124;333.68;73.181;0;-2.82E-6;0;Intelsat
1.0027055;0.0001692;0.0481;85.2992;336.4109;47.5368;0;-2.81E-6;0;Intelsat
1.0027053;0.000169;0.0482;85.4465;336.4972;73.2198;0;-2.8E-6;0;Intelsat
1.00270234;0.0001686;0.0489;85.1574;339.0274;47.8767;0;-2.79E-6;0;Intelsat
1.00270212;0.0001684;0.0491;85.3435;339.0174;73.6172;0;-2.79E-6;0;Intelsat
1.00274179;0.0001591;0.0482;84.9072;333.4562;286.9303;0;-2.78E-6;0;Intelsat
1.00273542;0.0001534;0.0481;84.8193;332.8806;57.1662;0;-2.77E-6;0;Intelsat
1.00273397;0.0001519;0.0481;85.8296;332.488;289.7726;0;-2.75E-6;0;Intelsat
1.00273224;0.0001501;0.0488;85.9764;332.2;59.4985;0;-2.74E-6;0;Intelsat
1.00272924;0.0001474;0.0504;86.682;331.8291;10.1;0;-2.72E-6;0;Intelsat
1.0027285;0.0001464;0.0513;86.6996;331.6915;62.0544;0;-2.72E-6;0;Intelsat
1.00272401;0.0001477;0.0527;88.4351;335.0567;33.8113;0;-2.69E-6;0;Intelsat
1.0027234;0.0001471;0.0535;88.1673;335.322;85.6456;0;-2.69E-6;0;Intelsat
1.00272118;0.0001461;0.054;89.2948;334.769;266.4909;0;-2.68E-6;0;Intelsat
1.00271953;0.000146;0.0554;89.327;335.5814;35.2033;0;-2.67E-6;0;Intelsat
1.00271895;0.0001459;0.0551;89.9011;334.9913;87.0534;0;-2.66E-6;0;Intelsat
1.00271597;0.0001443;0.0565;90.5089;335.0501;313.6341;0;-2.65E-6;0;Intelsat
1.00271463;0.0001442;0.057;91.2565;334.5761;63.0106;0;-2.65E-6;0;Intelsat
1.00271585;0.0001319;0.0353;113.4662;312.4806;147.6988;0;-2.65E-6;0;Intelsat
1.0027235;0.0001309;0.0454;94.17;329.5987;272.3753;0;-2.64E-6;0;Intelsat
1.0027235;0.0001309;0.0454;94.17;329.5987;272.3753;0;-2.64E-6;0;Intelsat
1.00272505;0.0001354;0.0403;83.9598;340.5238;170.8016;0;-2.64E-6;0;Intelsat
1.00272202;0.0001349;0.0476;97.1688;327.9188;43.4302;0;-2.64E-6;0;Intelsat
1.00272166;0.000135;0.0476;97.5568;327.5997;69.292;0;-2.63E-6;0;Intelsat
1.00272045;0.0001358;0.0459;93.7892;331.0812;166.7959;0;-2.64E-6;0;Intelsat
1.00271889;0.0001363;0.0246;128.7299;296.3104;276.7169;0;-2.64E-6;0;Intelsat
1.00271718;0.0001359;0.0432;88.4927;336.7812;46.0368;0;-2.65E-6;0;Intelsat
1.00269848;0.000145;0.0121;276.2856;150.8104;277.4633;0;-2.66E-6;0;Intelsat
1.00269807;0.0001455;0.0124;281.8148;144.8912;47.4054;0;-2.66E-6;0;Intelsat
1.0026956;0.0001506;0.0136;279.3514;149.1596;278.8386;0;-2.68E-6;0;Intelsat
1.0027084;0.0001365;0.0158;279.2591;148.4165;152.9055;0;-2.7E-6;0;Intelsat
1.00271411;0.0001386;0.0157;279.0875;145.0189;286.0286;0;-2.71E-6;0;Intelsat
1.00271675;0.0001466;0.017;278.7011;148.6548;156.0017;0;-2.74E-6;0;Intelsat
1.00271648;0.0001515;0.0182;278.993;146.3091;57.2103;0;-2.76E-6;0;Intelsat
1.00269251;0.0001694;0.0142;282.1383;147.3486;182.606;0;-2.77E-6;0;Intelsat
1.00269082;0.0001741;0.0138;283.1558;147.7723;284.8012;0;-2.78E-6;0;Intelsat
1.00268903;0.0001773;0.0133;282.1176;149.2091;53.9814;0;-2.79E-6;0;Intelsat
1.00268759;0.0001809;0.0126;281.7243;150.5574;177.9077;0;-2.8E-6;0;Intelsat
1.00268624;0.0001851;0.0122;283.0225;150.5868;278.3743;0;-2.81E-6;0;Intelsat
1.00268474;0.0001895;0.0119;282.7279;151.6412;42.3445;0;-2.81E-6;0;Intelsat
1.00273062;0.0001649;0.0132;283.3949;144.0045;180.6767;0;-2.82E-6;0;Intelsat
1.00271679;0.0001678;0.0116;283.8829;146.6355;60.4046;0;-2.82E-6;0;Intelsat
1.00271688;0.0001719;0.011;280.2337;152.8707;164.6755;0;-2.83E-6;0;Intelsat
1.00271435;0.0001799;0.0125;290.8302;144.0961;58.7732;0;-2.83E-6;0;Intelsat
1.00271358;0.0001831;0.0139;291.6251;144.5717;170.7642;0;-2.83E-6;0;Intelsat
1.00271163;0.0001904;0.0148;294.0078;144.1251;58.3789;0;-2.82E-6;0;Intelsat
1.00271038;0.000193;0.0159;295.8767;143.5263;212.5786;0;-2.82E-6;0;Intelsat
1.0027139;0.0001619;0.0183;297.915;113.2566;191.8206;0;-2.81E-6;0;Intelsat
1.00271353;0.0001624;0.0189;301.2012;111.7036;60.2264;0;-2.8E-6;0;Intelsat
1.00269215;0.0001741;0.021;303.2569;122.8916;179.6125;0;-2.8E-6;0;Intelsat
1.00271349;0.0001673;0.0179;293.5103;127.8355;51.0151;0;-2.79E-6;0;Intelsat
1.00271419;0.0001698;0.0181;302.2932;121.7511;80.8739;0;-2.79E-6;0;Intelsat
